0 SL-8 R/B
1 11574U 79089B   13282.46789016  .00000135  00000-0  51165-4 0  5681
2 11574 074.0713 184.0003 0015039 069.9156 342.7408 14.40050927783257
0 SL-8 R/B
1 11574U 79089B   13283.72039801  .00000129  00000-0  49205-4 0  5697
2 11574 074.0712 181.6909 0015096 067.1582 356.0984 14.40051304783437
0 SL-8 R/B
1 11574U 79089B   13286.17085912  .00000178  00000-0  64588-4 0  5711
2 11574 074.0708 177.1728 0015157 061.7219 100.0389 14.40051730783783
0 SL-8 R/B
1 11574U 79089B   13287.27796466  .00000204  00000-0  72954-4 0  5723
2 11574 074.0706 175.1315 0015181 059.2104 079.6689 14.40052209783947
0 SL-8 R/B
1 11574U 79089B   13288.44248829  .00000261  00000-0  91045-4 0  5734
2 11574 074.0703 172.9844 0015208 056.6291 356.9169 14.40053064784118
0 SL-8 R/B
1 11574U 79089B   13289.83510839  .00000195  00000-0  70151-4 0  5743
2 11574 074.0700 170.4166 0015259 053.6598 016.5730 14.40053993784314
0 SL-8 R/B
1 11574U 79089B   13291.17061428  .00000179  00000-0  65104-4 0  5753
2 11574 074.0698 167.9541 0015306 050.7041 100.2483 14.40054795784500
0 SL-8 R/B
1 11574U 79089B   13292.20939666  .00000188  00000-0  67935-4 0  5761
2 11574 074.0696 166.0386 0015325 048.4020 085.6237 14.40055201784659
0 SL-8 R/B
1 11574U 79089B   13293.37463377  .00000188  00000-0  67751-4 0  5778
2 11574 074.0696 163.8899 0015355 045.8529 006.5490 14.40055750784822
0 SL-8 R/B
1 11574U 79089B   13294.49264968  .00000183  00000-0  66168-4 0  5784
2 11574 074.0695 161.8283 0015396 043.4072 042.6678 14.40056404784981
0 SL-8 R/B
1 11574U 79089B   13295.52523387  .00000205  00000-0  73193-4 0  5794
2 11574 074.0695 159.9242 0015452 041.1936 355.8412 14.40056848785136
